QIANFAN-105             
1 66047U 25233Q   25311.10786306  .00000792  00000+0  32356-3 0  9990
2 66047  88.9952  66.1317 0015990 148.3994 211.8163 14.26330678  2961
QIANFAN-106             
1 66048U 25233R   25311.10790991  .00000778  00000+0  31766-3 0  9994
2 66048  88.9953  66.1318 0015854 148.0764 212.1393 14.26313954  2962
QIANFAN-107             
1 66049U 25233S   25311.10766900  .00000777  00000+0  31712-3 0  9998
2 66049  88.9952  66.1317 0016649 146.2335 213.9922 14.26342844  2965
QIANFAN-108             
1 66050U 25233T   25311.10739206  .00000778  00000+0  31762-3 0  9995
2 66050  88.9952  66.1315 0016618 147.9274 212.2934 14.26355881  2961
